{
  "type": "FeatureCollection",
  "features": [
    {
      "type": "Feature",
      "properties": {
        "norad_id": 37484,
        "name": "COSMOS 2251 DEB",
        "group": "cosmos-2251-debris",
        "lat": -29.58926825131465,
        "lon": 42.68363558847632,
        "alt_km": 735.5784290237289,
        "timestamp": "2025-12-10T04:57:30.019615+00:00",
        "meta_object_name": "COSMOS 2251 DEB",
        "meta_object_id": "1993-036BLM",
        "meta_epoch": "2025-12-08T23:58:05.079360",
        "meta_mean_motion": 14.41757676,
        "meta_eccentricity": 0.0040001,
        "meta_inclination": 73.8236,
        "meta_ra_of_asc_node": 215.4631,
        "meta_arg_of_pericenter": 250.9229,
        "meta_mean_anomaly": 173.1342,
        "meta_ephemeris_type": 0,
        "meta_classification_type": "U",
        "meta_norad_cat_id": 37484,
        "meta_element_set_no": 999,
        "meta_rev_at_epoch": 65325,
        "meta_bstar": 0.00081064,
        "meta_mean_motion_dot": 2.644e-05,
        "meta_mean_motion_ddot": 0,
        "tle_line1": "1 37484U 93036BLM 25342.99866990  .00002644  00000+0  81064-3 0  9996",
        "tle_line2": "2 37484  73.8236 215.4631 0040001 250.9229 173.1342 14.41757676653253"
      },
      "geometry": {
        "type": "Point",
        "coordinates": [
          42.68363558847632,
          -29.58926825131465
        ]
      }
    },
    {
      "type": "Feature",
      "properties": {
        "norad_id": 37486,
        "name": "COSMOS 2251 DEB",
        "group": "cosmos-2251-debris",
        "lat": 10.003627682428482,
        "lon": 122.13935819467432,
        "alt_km": 696.0642655316715,
        "timestamp": "2025-12-10T04:57:30.019625+00:00",
        "meta_object_name": "COSMOS 2251 DEB",
        "meta_object_id": "1993-036BLP",
        "meta_epoch": "2025-12-08T15:36:14.085792",
        "meta_mean_motion": 14.13268533,
        "meta_eccentricity": 0.0229186,
        "meta_inclination": 73.6904,
        "meta_ra_of_asc_node": 121.9918,
        "meta_arg_of_pericenter": 350.7921,
        "meta_mean_anomaly": 22.951,
        "meta_ephemeris_type": 0,
        "meta_classification_type": "U",
        "meta_norad_cat_id": 37486,
        "meta_element_set_no": 999,
        "meta_rev_at_epoch": 63312,
        "meta_bstar": 0.0028521,
        "meta_mean_motion_dot": 6.844e-05,
        "meta_mean_motion_ddot": 0,
        "tle_line1": "1 37486U 93036BLP 25342.65016303  .00006844  00000+0  28521-2 0  9990",
        "tle_line2": "2 37486  73.6904 121.9918 0229186 350.7921  22.9510 14.13268533633125"
      },
      "geometry": {
        "type": "Point",
        "coordinates": [
          122.13935819467432,
          10.003627682428482
        ]
      }
    },
    {
      "type": "Feature",
      "properties": {
        "norad_id": 37487,
        "name": "COSMOS 2251 DEB",
        "group": "cosmos-2251-debris",
        "lat": -25.44318442588443,
        "lon": 25.02393619404495,
        "alt_km": 649.5663951571496,
        "timestamp": "2025-12-10T04:57:30.019635+00:00",
        "meta_object_name": "COSMOS 2251 DEB",
        "meta_object_id": "1993-036BLQ",
        "meta_epoch": "2025-12-08T08:15:02.962656",
        "meta_mean_motion": 14.80724643,
        "meta_eccentricity": 0.00253468,
        "meta_inclination": 73.9018,
        "meta_ra_of_asc_node": 200.8288,
        "meta_arg_of_pericenter": 39.8809,
        "meta_mean_anomaly": 320.4223,
        "meta_ephemeris_type": 0,
        "meta_classification_type": "U",
        "meta_norad_cat_id": 37487,
        "meta_element_set_no": 999,
        "meta_rev_at_epoch": 81180,
        "meta_bstar": 0.0030271711,
        "meta_mean_motion_dot": 0.00023476,
        "meta_mean_motion_ddot": 0,
        "tle_line1": "1 37487U 93036BLQ 25342.34378429  .00023476  00000+0  30272-2 0  9993",
        "tle_line2": "2 37487  73.9018 200.8288 0025346  39.8809 320.4223 14.80724643811807"
      },
      "geometry": {
        "type": "Point",
        "coordinates": [
          25.02393619404495,
          -25.44318442588443
        ]
      }
    },
    {
      "type": "Feature",
      "properties": {
        "norad_id": 37491,
        "name": "COSMOS 2251 DEB",
        "group": "cosmos-2251-debris",
        "lat": -24.56778338940704,
        "lon": 105.92407444573199,
        "alt_km": 885.7311304901277,
        "timestamp": "2025-12-10T04:57:30.019645+00:00",
        "meta_object_name": "COSMOS 2251 DEB",
        "meta_object_id": "1993-036BLU",
        "meta_epoch": "2025-12-08T13:31:18.637824",
        "meta_mean_motion": 13.75270831,
        "meta_eccentricity": 0.0317693,
        "meta_inclination": 73.9064,
        "meta_ra_of_asc_node": 281.0937,
        "meta_arg_of_pericenter": 274.9147,
        "meta_mean_anomaly": 81.5777,
        "meta_ephemeris_type": 0,
        "meta_classification_type": "U",
        "meta_norad_cat_id": 37491,
        "meta_element_set_no": 999,
        "meta_rev_at_epoch": 55689,
        "meta_bstar": 0.0022883,
        "meta_mean_motion_dot": 3.145e-05,
        "meta_mean_motion_ddot": 0,
        "tle_line1": "1 37491U 93036BLU 25342.56341016  .00003145  00000+0  22883-2 0  9994",
        "tle_line2": "2 37491  73.9064 281.0937 0317693 274.9147  81.5777 13.75270831556893"
      },
      "geometry": {
        "type": "Point",
        "coordinates": [
          105.92407444573199,
          -24.56778338940704
        ]
      }
    },
    {
      "type": "Feature",
      "properties": {
        "norad_id": 37498,
        "name": "COSMOS 2251 DEB",
        "group": "cosmos-2251-debris",
        "lat": -66.09617538858778,
        "lon": 48.909994647937346,
        "alt_km": 707.5834332756885,
        "timestamp": "2025-12-10T04:57:30.019655+00:00",
        "meta_object_name": "COSMOS 2251 DEB",
        "meta_object_id": "1993-036BMB",
        "meta_epoch": "2025-12-02T07:38:53.705760",
        "meta_mean_motion": 14.54689112,
        "meta_eccentricity": 0.00134342,
        "meta_inclination": 74.038,
        "meta_ra_of_asc_node": 203.6034,
        "meta_arg_of_pericenter": 264.7495,
        "meta_mean_anomaly": 95.2135,
        "meta_ephemeris_type": 0,
        "meta_classification_type": "U",
        "meta_norad_cat_id": 37498,
        "meta_element_set_no": 999,
        "meta_rev_at_epoch": 65203,
        "meta_bstar": 0.00080152077,
        "meta_mean_motion_dot": 3.406e-05,
        "meta_mean_motion_ddot": 0,
        "tle_line1": "1 37498U 93036BMB 25336.31867715  .00003406  00000+0  80152-3 0  9990",
        "tle_line2": "2 37498  74.0380 203.6034 0013434 264.7495  95.2135 14.54689112652037"
      },
      "geometry": {
        "type": "Point",
        "coordinates": [
          48.909994647937346,
          -66.09617538858778
        ]
      }
    },
    {
      "type": "Feature",
      "properties": {
        "norad_id": 37499,
        "name": "COSMOS 2251 DEB",
        "group": "cosmos-2251-debris",
        "lat": -64.60222006963681,
        "lon": -70.24469393798547,
        "alt_km": 791.7722000451131,
        "timestamp": "2025-12-10T04:57:30.019665+00:00",
        "meta_object_name": "COSMOS 2251 DEB",
        "meta_object_id": "1993-036BMC",
        "meta_epoch": "2025-12-08T23:09:11.819232",
        "meta_mean_motion": 14.34336218,
        "meta_eccentricity": 0.00267882,
        "meta_inclination": 74.0376,
        "meta_ra_of_asc_node": 329.1013,
        "meta_arg_of_pericenter": 46.2622,
        "meta_mean_anomaly": 314.0742,
        "meta_ephemeris_type": 0,
        "meta_classification_type": "U",
        "meta_norad_cat_id": 37499,
        "meta_element_set_no": 999,
        "meta_rev_at_epoch": 85095,
        "meta_bstar": 0.00024772598,
        "meta_mean_motion_dot": 6.73e-06,
        "meta_mean_motion_ddot": 0,
        "tle_line1": "1 37499U 93036BMC 25342.96472013  .00000673  00000+0  24773-3 0  9992",
        "tle_line2": "2 37499  74.0376 329.1013 0026788  46.2622 314.0742 14.34336218850956"
      },
      "geometry": {
        "type": "Point",
        "coordinates": [
          -70.24469393798547,
          -64.60222006963681
        ]
      }
    },
    {
      "type": "Feature",
      "properties": {
        "norad_id": 37528,
        "name": "COSMOS 2251 DEB",
        "group": "cosmos-2251-debris",
        "lat": -57.53726883768368,
        "lon": 100.15880168951102,
        "alt_km": 717.0332971362486,
        "timestamp": "2025-12-10T04:57:30.019675+00:00",
        "meta_object_name": "COSMOS 2251 DEB",
        "meta_object_id": "1993-036BNH",
        "meta_epoch": "2025-12-08T16:49:26.649696",
        "meta_mean_motion": 14.50498376,
        "meta_eccentricity": 0.00210456,
        "meta_inclination": 74.0372,
        "meta_ra_of_asc_node": 129.7266,
        "meta_arg_of_pericenter": 278.202,
        "meta_mean_anomaly": 81.6753,
        "meta_ephemeris_type": 0,
        "meta_classification_type": "U",
        "meta_norad_cat_id": 37528,
        "meta_element_set_no": 999,
        "meta_rev_at_epoch": 85872,
        "meta_bstar": 0.00091460645,
        "meta_mean_motion_dot": 3.563e-05,
        "meta_mean_motion_ddot": 0,
        "tle_line1": "1 37528U 93036BNH 25342.70100289  .00003563  00000+0  91461-3 0  9999",
        "tle_line2": "2 37528  74.0372 129.7266 0021045 278.2020  81.6753 14.50498376858723"
      },
      "geometry": {
        "type": "Point",
        "coordinates": [
          100.15880168951102,
          -57.53726883768368
        ]
      }
    }
  ]
}